#cP2023  5 20  0  0  0.00000000      96 ORBIT IGS20 HLM  IGS
## 2262 518400.00000000   900.00000000 60084 0.0000000000000
+   32   G01G02G03G04G05G06G07G08G09G10G11G12G13G14G15G16G17
+        G18G19G20G21G22G23G24G25G26G27G28G29G30G31G32  0  0
+          0  0  0  0  0  0  0  0  0  0  0  0  0  0  0  0  0
+          0  0  0  0  0  0  0  0  0  0  0  0  0  0  0  0  0
+          0  0  0  0  0  0  0  0  0  0  0  0  0  0  0  0  0
++         2  2  2  2  2  2  2  2  2  2  2  2  2  3  2  2  2
++         2  2  2  2  2  2  2  3  3  2  2  2  2  2  2  0  0
++         0  0  0  0  0  0  0  0  0  0  0  0  0  0  0  0  0
++         0  0  0  0  0  0  0  0  0  0  0  0  0  0  0  0  0
++         0  0  0  0  0  0  0  0  0  0  0  0  0  0  0  0  0
%c G  cc GPS ccc cccc cccc cccc cccc ccccc ccccc ccccc ccccc
%c cc cc ccc ccc cccc cccc cccc cccc ccccc ccccc ccccc ccccc
%f  1.2500000  1.025000000  0.00000000000  0.000000000000000
%f  0.0000000  0.000000000  0.00000000000  0.000000000000000
%i    0    0    0    0      0      0      0      0         0
%i    0    0    0    0      0      0      0      0         0
/* RAPID ORBIT COMBINATION FROM WEIGHTED AVERAGE OF:        
/* cod emr esa gfz grg jpl ngs sio usn whu                  
/* REFERENCED TO IGS TIME (IGST) AND TO WEIGHTED MEAN POLE: 
/* PCV:IGS20_2233 OL/AL:FES2014b NONE     Y  ORB:CMB CLK:CMB
*  2023  5 20  6  0  0.00000000
PG01 -20795.199209 -12782.779894  10556.460269    184.041076  6  5  4  94       
PG02 -10757.371231 -21017.429999 -11984.471056   -594.392914  2  9  4  81       
PG03 -14402.114264  -3306.417933  21935.100868   -297.952781  5  4  2  99       
PG04 -25188.466656  -1169.755909   8537.720042     46.060454  7  4  4  85       
PG05   7149.292190  19244.078572 -16961.378864   -127.878428  6  7  3 111       
PG06  -1458.370807  17689.726305  19784.681036    587.833034  3  4  6 112       
PG07 -17654.324085   1422.772422 -19479.795761    173.832798  5  5  5 131       
PG08 -17913.779790  -8402.748074 -17974.320643   -123.285851  7  5  6 113       
PG09 -25491.646965   7433.240405  -1327.361913   -154.908197  5  1  6 106       
PG10  11091.289540 -23214.318624  -5724.242231    -37.658790  5  9  5 102       
PG11  10932.801163  22550.998187   8864.393010   -203.419419  3  9  4 114       
PG12  13215.169089   7234.578495  21598.366944   -378.216718  5  4  6 106       
PG13  10154.184404  13417.822795 -20774.991975    522.442553  5  5  3 117       
PG14 -13546.222226  21159.688881  -8365.686413     62.866056  6 10  8 109       
PG15  19124.971042   6764.741890 -17733.896076     41.159599  2  5  4 118       
PG16  -2559.694517 -21629.144123 -15183.706858   -499.449519  6  7  6  94       
PG17 -17365.439302  13486.072055  15404.984910    715.446289  6  5  5 118       
PG18  15152.423757  -4790.984866 -21308.319321   -273.647653  5  6  6 115       
PG19  -9051.512270  14707.565666  19863.350576    319.284190  4  3  5 121       
PG20   3152.307750  24930.973157  -8851.895408    432.612091  6  9  6 115       
PG21 -21191.783709 -16643.100972   2692.528250    153.715644  5  7  8 104       
PG22   5102.283296 -15688.833284  21236.149306    484.284472  4  7  7  59       
PG23  15326.389427 -14388.652389 -16135.405919     25.678797  3  7  2 108       
PG24  21921.370515  14195.241657   5574.440497   -195.166009  3  5  7  98       
PG25  16318.496982  -6006.449385  19688.640148    444.068806  8  7  8  97       
PG26   3695.002080 -25942.102160  -3116.658397    240.554501  8 11  6  91       
PG27  -6414.868617 -14008.609257 -21915.497738     33.754984  6  7    105       
PG28   2907.823600 -17011.254691  20167.738500     79.023091  5  3  4  90       
PG29  26394.294289  -3102.599589   1303.442080   -600.056712  4  7  2  96       
PG30  -9810.389842  12426.160657 -21193.331654   -516.167291  5  6  7 119       
PG31  -6405.354255 -21613.362485  13523.865002   -216.467352  4  7  2  99       
PG32  14159.065942 -15306.294120  16518.812707   -480.788385  5  3  4  88       
*  2023  5 20  6 15  0.00000000
PG01 -21448.740597 -13664.130062   7929.164835    184.038557  6  6  5  99       
PG02  -9448.921903 -20139.481838 -14255.291724   -594.389528  3  9  4 100       
PG03 -13738.123305  -5747.377297  21868.209211   -297.942397  5  4  2 100       
PG04 -24147.083047  -1629.474483  11083.819032     46.069368  7  4  4  79       
PG05   6595.681271  20967.888236 -14998.811647   -127.879598  6  8  4  97       
PG06  -3125.570956  16083.631164  20940.839023    587.832513  3  3  5 111       
PG07 -19135.766377   -248.234757 -18160.084851    173.824111  5  5  5 118       
PG08 -15917.227469  -9108.043422 -19421.127837   -123.288308  7  5  6 105       
PG09 -25548.185498   7171.339713   1515.600784   -154.900598  6     6 104       
PG10  11083.890523 -22347.211368  -8477.038697    -37.660212  5  9  5 109       
PG11  10002.577654  21831.686168  11399.279432   -203.432099  2  9  3 116       
PG12  12361.534921   9591.061959  21194.624152   -378.220705  5  5  6 110       
PG13   7799.312771  13756.030695 -21545.231009    522.447306  5  5  4 119       
PG14 -13479.537373  20019.321540 -10906.232268     62.877430  5  9  8 114       
PG15  17314.307524   7692.423322 -19171.144573     41.162707  2  5  3 115       
PG16  -1821.644635 -23041.279708 -12970.991635   -499.446386  6  8  6  91       
PG17 -18929.696901  13647.200795  13211.117674    715.447620  6  5  5 114       
PG18  16755.054043  -3029.269995 -20426.703242   -273.661734  5  6  6 118       
PG19 -11288.881775  14927.042753  18496.808826    319.288983  4  2  5 118       
PG20   2811.790774  25764.862472  -6208.786204    432.610399  5  9  7 109       
PG21 -21136.714189 -16839.154999   -110.228378    153.715446  5  7  8 121       
PG22   7368.616868 -16007.268207  20277.223875    484.290054  4  7  7  44       
PG23  15011.215494 -12455.204922 -17951.313737     25.681653  3  6  2 112       
PG24  22125.760704  14755.839426   2852.085020   -195.178389  4  5  7 101       
PG25  15830.233032  -3674.898351  20646.434751    444.071145  8  7  8  95       
PG26   4080.055203 -26055.100497   -303.766306    240.554219  8 12  6  82       
PG27  -4040.273635 -14641.189880 -22033.336523     33.747834  6  7    109       
PG28   4686.278830 -15452.292188  21066.086470     79.025781  5  3  4 100       
PG29  26119.014739  -2845.285134   4162.143072   -600.057835  4  7  2  99       
PG30 -11548.024428  10677.968802 -21293.978214   -516.165313  5  6  7 120       
PG31  -5057.956429 -20531.683833  15631.547589   -216.468118  5  6  2  98       
PG32  15900.135716 -15588.612328  14510.475232   -480.796551  6  2  4  93       
*  2023  5 20  6 30  0.00000000
PG01 -21927.684020 -14296.476763   5166.562135    184.036058  6  7  5  90       
PG02  -7895.277915 -19183.796748 -16276.877060   -594.386012  4  9  4 106       
PG03 -13214.818752  -8190.935091  21420.646927   -297.932002  4  5  2  93       
PG04 -22865.340574  -2220.991987  13440.421907     46.078205  7  4  5  83       
PG05   6170.587811  22486.972656 -12779.593520   -127.880950  6  8  4  98       
PG06  -4962.138428  14500.816299  21737.838946    587.831958  3  3  5 116       
PG07 -20570.006780  -1724.372061 -16521.499606    173.815551  5  5  6 111       
PG08 -13822.372304  -9967.138062 -20539.360640   -123.290099  7  5  5 113       
PG09 -25316.544580   6805.465082   4332.525541   -154.892968  6     6 106       
PG10  11062.199742 -21179.803357 -11080.353305    -37.661552  5  8  4 108       
PG11   8839.457170  20968.626834  13738.469826   -203.444703  2  9  4 122       
PG12  11650.933611  11922.306985  20417.166384   -378.225051  4  5  6 114       
PG13   5399.707528  14233.272075 -21951.563276    522.452271  5  6  4 114       
PG14 -13404.289902  18607.816398 -13257.463239     62.888901  5  8  9 102       
PG15  15424.427686   8769.586998 -20292.693779     41.165839  3  5  3 119       
PG16  -1231.487449 -24240.270707 -10533.666114   -499.443519  7  8  7  89       
PG17 -20236.004305  13827.223208  10796.347703    715.448855  6  5  5 117       
PG18  18362.426159  -1439.553896 -19194.873070   -273.675837  5  5  6 122       
PG19 -13340.584632  15228.166236  16802.961818    319.293404  4  2  5 118       
PG20   2526.124144  26311.283457  -3459.892951    432.608284  5  9  7 112       
PG21 -20840.712075 -16855.190027  -2911.135016    153.715103  5  8  8 112       
PG22   9496.080306 -16416.808169  18981.075876    484.295832  5  7  7  64       
PG23  14767.709792 -10322.776927 -19456.524168     25.684521  4  5  2 116       
PG24  22112.635375  15118.377870     81.626054   -195.190796  4  6  7 106       
PG25  15441.912888  -1236.142112  21237.310463    444.073545  8  7  8 110       
PG26   4415.651798 -25869.016670   2514.450265    240.553709  7 12  7 101       
PG27  -1706.460848 -15399.601086 -21780.512967     33.740743  6  6    116       
PG28   6606.107400 -13936.135684  21601.235943     79.028555  5  3  5  95       
PG29  25547.952921  -2495.785305   6949.529400   -600.059042  4  7  2 101       
PG30 -13358.098006   9023.084332 -21024.593180   -516.163412  5  6  7 114       
PG31  -3494.748679 -19365.119196  17462.064179   -216.468916  5  5  1 104       
PG32  17398.266616 -15882.820751  12252.925262   -480.804779  6  2  4 106       
EOF
